[{"OBJECT_NAME":"STARLINK-30885","OBJECT_ID":"2023-177L","EPOCH":"2026-03-09T22:00:01.999584","MEAN_MOTION":15.26744575,"ECCENTRICITY":0.00016446,"INCLINATION":43.001,"RA_OF_ASC_NODE":349.04,"ARG_OF_PERICENTER":256.6754,"MEAN_ANOMALY":169.4773,"EPHEMERIS_TYPE":0,"CLASSIFICATION_TYPE":"U","NORAD_CAT_ID":58361,"ELEMENT_SET_NO":999,"REV_AT_EPOCH":578,"BSTAR":-0.00042271503,"MEAN_MOTION_DOT":-0.00011583,"MEAN_MOTION_DDOT":0},{"OBJECT_NAME":"TOMORROW-S4","OBJECT_ID":"2024-247K","EPOCH":"2026-03-09T12:47:35.836224","MEAN_MOTION":15.27717249,"ECCENTRICITY":0.00044343,"INCLINATION":44.9818,"RA_OF_ASC_NODE":117.9996,"ARG_OF_PERICENTER":210.4078,"MEAN_ANOMALY":149.6548,"EPHEMERIS_TYPE":0,"CLASSIFICATION_TYPE":"U","NORAD_CAT_ID":62386,"ELEMENT_SET_NO":999,"REV_AT_EPOCH":6770,"BSTAR":0.00046927249,"MEAN_MOTION_DOT":0.00012677,"MEAN_MOTION_DDOT":0}]
